OBJECT_NAME,OBJECT_ID,EPOCH,MEAN_MOTION,ECCENTRICITY,INCLINATION,RA_OF_ASC_NODE,ARG_OF_PERICENTER,MEAN_ANOMALY,EPHEMERIS_TYPE,CLASSIFICATION_TYPE,NORAD_CAT_ID,ELEMENT_SET_NO,REV_AT_EPOCH,BSTAR,MEAN_MOTION_DOT,MEAN_MOTION_DDOT
STARLINK-4135,2022-086G,2026-05-14T14:47:20.365152,15.08844016,.00013773,53.2188,263.2717,87.7245,272.3905,0,U,53248,999,21126,.21013606E-4,.47E-6,0
STARLINK-4128,2022-086H,2026-05-14T14:52:00.754752,15.08841383,.00012968,53.2166,258.1582,91.2006,268.9134,0,U,53249,999,21103,-.5044527E-5,-.368E-5,0
STARLINK-4059,2022-086J,2026-05-14T18:06:42.452928,15.08838640,.00011913,53.2168,257.5438,89.3030,270.8099,0,U,53250,999,21104,-.1584772E-5,-.313E-5,0
STARLINK-4129,2022-086K,2026-05-14T14:40:02.243712,15.08839817,.00012836,53.2179,258.1873,91.4731,268.6408,0,U,53251,999,21101,.5931043E-5,-.193E-5,0
STARLINK-4132,2022-086L,2026-05-14T14:45:19.638432,15.08841340,.00013682,53.2179,258.1237,86.5216,273.5933,0,U,53252,999,21103,-.4321166E-5,-.357E-5,0
STARLINK-4133,2022-086M,2026-05-14T17:45:30.672576,15.08840377,.00015123,53.2161,257.6100,92.9282,267.1883,0,U,53253,999,21103,.13631659E-4,-.71E-6,0
STARLINK-4134,2022-086N,2026-05-13T18:06:42.487488,15.08839506,.00014806,53.2164,262.0427,87.0977,273.0184,0,U,53254,999,21090,-.41999581E-4,-.956E-5,0
STARLINK-4142,2022-086P,2026-05-14T14:24:08.393760,15.08839765,.00011736,53.2176,258.2378,85.6490,274.4636,0,U,53255,999,21101,.4679675E-4,.457E-5,0
STARLINK-4147,2022-086Q,2026-05-14T14:29:26.190240,15.08840981,.00012327,53.2168,258.2217,89.5949,270.5184,0,U,53256,999,21101,.44155793E-4,.415E-5,0
STARLINK-4144,2022-086R,2026-05-15T07:37:29.098560,15.08839090,.00012046,53.2175,255.0174,86.4081,273.7048,0,U,53257,999,21112,.56338238E-4,.609E-5,0
STARLINK-4127,2022-086S,2026-05-14T17:29:36.723264,15.08838588,.00012292,53.2170,257.6588,85.5572,274.5561,0,U,53258,999,21103,.3694548E-4,.3E-5,0
STARLINK-4140,2022-086T,2026-05-14T14:50:34.372896,15.08839368,.00014296,53.2161,257.7968,88.7337,271.3819,0,U,53259,999,21102,-.16693444E-4,-.554E-5,0
STARLINK-4062,2022-086V,2026-05-14T15:27:43.995744,15.08835282,.00011194,53.2173,258.0400,83.4274,276.6846,0,U,53261,999,21102,-.18356028E-4,-.58E-5,0
STARLINK-4085,2022-086W,2026-05-15T07:32:11.360832,15.08834782,.00011761,53.2176,255.0348,89.2833,270.8294,0,U,53262,999,21112,.58977827E-4,.651E-5,0
STARLINK-4130,2022-086X,2026-05-15T07:16:17.461632,15.08835939,.00012813,53.2184,255.0851,89.9009,270.2130,0,U,53263,999,21112,.4310246E-4,.398E-5,0
STARLINK-3950,2022-086Y,2026-05-14T01:14:34.930752,15.08825596,.00017509,53.2183,260.6989,89.4141,270.7051,0,U,53264,999,21093,.26389429E-3,.3913E-4,0
STARLINK-4097,2022-086Z,2026-05-14T15:11:50.160480,15.08834517,.00010701,53.2163,258.0890,84.6037,275.5077,0,U,53265,999,21102,.4457038E-5,-.217E-5,0
STARLINK-4058,2022-086AA,2026-05-15T07:10:59.580480,15.08834864,.00012659,53.2183,255.1007,91.9148,268.1989,0,U,53266,999,21112,.3369972E-4,.248E-5,0
STARLINK-4060,2022-086AB,2026-05-15T06:55:05.565504,15.08834938,.00012925,53.2171,255.1502,90.8169,269.2972,0,U,53267,999,21112,.28685127E-4,.169E-5,0
STARLINK-4109,2022-086AC,2026-05-14T15:06:32.120352,15.08836046,.00009971,53.2177,258.1076,84.4653,275.6452,0,U,53268,999,21102,-.1444221E-4,-.518E-5,0
STARLINK-4122,2022-086AG,2026-05-15T06:51:06.889824,15.08836404,.00012134,53.2179,245.1594,91.7960,268.3171,0,U,53272,999,21125,.58656213E-4,.646E-5,0
STARLINK-4051,2022-086AH,2026-05-15T06:24:37.350144,15.08834395,.00011578,53.2164,245.2427,87.9118,272.2006,0,U,53273,999,21124,.12119185E-4,-.95E-6,0
STARLINK-4050,2022-086AJ,2026-05-15T06:40:31.823904,15.08840425,.00017878,53.2164,245.1905,104.4146,255.7044,0,U,53274,999,21125,-.24130696E-3,-.4127E-4,0
STARLINK-4179,2022-086AK,2026-05-15T06:19:19.428384,15.08834107,.00010447,53.2170,245.2589,87.4795,272.6317,0,U,53275,999,21124,.21627861E-4,.56E-6,0
STARLINK-4174,2022-086AL,2026-05-15T06:29:55.348800,15.08834801,.00011574,53.2181,245.2266,85.9091,274.2034,0,U,53276,999,21124,.31495026E-4,.213E-5,0
STARLINK-4178,2022-086AM,2026-05-15T07:44:06.861696,15.08837137,.00011465,53.2165,245.0235,87.0691,273.0432,0,U,53277,999,21125,-.283922E-4,-.74E-5,0
STARLINK-4180,2022-086AN,2026-05-15T07:49:24.360960,15.08832293,.00009103,53.2166,244.9765,82.4034,277.7061,0,U,53278,999,21125,-.70076453E-4,-.1403E-4,0
STARLINK-4169,2022-086AQ,2026-05-15T07:31:27.904224,15.08840526,.00010709,53.2165,199.7083,84.8295,275.2819,0,U,53280,999,21189,.15150337E-4,-.47E-6,0
STARLINK-4164,2022-086AS,2026-05-15T07:38:48.613344,15.08840088,.00011664,53.2165,245.0118,84.3644,275.7481,0,U,53282,999,21125,.295728E-6,-.283E-5,0
STARLINK-4175,2022-086AT,2026-05-14T13:53:40.134336,15.08840462,.00010648,53.2152,248.3327,79.5209,280.5903,0,U,53283,999,21114,.17779234E-4,-.5E-7,0
