STARLINK-4135           
1 53248U 22086G   26134.61620793  .00000047  00000+0  21014-4 0  9992
2 53248  53.2188 263.2717 0001377  87.7245 272.3905 15.08844016211267
STARLINK-4128           
1 53249U 22086H   26134.61945318 -.00000368  00000+0 -50445-5 0  9995
2 53249  53.2166 258.1582 0001296  91.2006 268.9134 15.08841383211036
STARLINK-4059           
1 53250U 22086J   26134.75465802 -.00000313  00000+0 -15848-5 0  9995
2 53250  53.2168 257.5438 0001191  89.3030 270.8099 15.08838640211047
STARLINK-4129           
1 53251U 22086K   26134.61113708 -.00000193  00000+0  59310-5 0  9993
2 53251  53.2179 258.1873 0001283  91.4731 268.6408 15.08839817211017
STARLINK-4132           
1 53252U 22086L   26134.61481063 -.00000357  00000+0 -43212-5 0  9993
2 53252  53.2179 258.1237 0001368  86.5216 273.5933 15.08841340211033
STARLINK-4133           
1 53253U 22086M   26134.73993834 -.00000071  00000+0  13632-4 0  9995
2 53253  53.2161 257.6100 0001512  92.9282 267.1883 15.08840377211035
STARLINK-4134           
1 53254U 22086N   26133.75465842 -.00000956  00000+0 -42000-4 0  9994
2 53254  53.2164 262.0427 0001480  87.0977 273.0184 15.08839506210908
STARLINK-4142           
1 53255U 22086P   26134.60009715  .00000457  00000+0  46797-4 0  9994
2 53255  53.2176 258.2378 0001173  85.6490 274.4636 15.08839765211014
STARLINK-4147           
1 53256U 22086Q   26134.60377535  .00000415  00000+0  44156-4 0  9994
2 53256  53.2168 258.2217 0001232  89.5949 270.5184 15.08840981211013
STARLINK-4144           
1 53257U 22086R   26135.31769790  .00000609  00000+0  56338-4 0  9992
2 53257  53.2175 255.0174 0001204  86.4081 273.7048 15.08839090211126
STARLINK-4127           
1 53258U 22086S   26134.72889726  .00000300  00000+0  36945-4 0  9999
2 53258  53.2170 257.6588 0001229  85.5572 274.5561 15.08838588211031
STARLINK-4140           
1 53259U 22086T   26134.61845339 -.00000554  00000+0 -16693-4 0  9991
2 53259  53.2161 257.7968 0001429  88.7337 271.3819 15.08839368211028
STARLINK-4062           
1 53261U 22086V   26134.64425921 -.00000580  00000+0 -18356-4 0  9995
2 53261  53.2173 258.0400 0001119  83.4274 276.6846 15.08835282211026
STARLINK-4085           
1 53262U 22086W   26135.31402038  .00000651  00000+0  58978-4 0  9996
2 53262  53.2176 255.0348 0001176  89.2833 270.8294 15.08834782211124
STARLINK-4130           
1 53263U 22086X   26135.30297988  .00000398  00000+0  43102-4 0  9993
2 53263  53.2184 255.0851 0001281  89.9009 270.2130 15.08835939211120
STARLINK-3950           
1 53264U 22086Y   26134.05179318  .00003913  00000+0  26389-3 0  9994
2 53264  53.2183 260.6989 0001750  89.4141 270.7051 15.08825596210930
STARLINK-4097           
1 53265U 22086Z   26134.63321945 -.00000217  00000+0  44570-5 0  9993
2 53265  53.2163 258.0890 0001070  84.6037 275.5077 15.08834517211022
STARLINK-4058           
1 53266U 22086AA  26135.29930070  .00000248  00000+0  33700-4 0  9997
2 53266  53.2183 255.1007 0001265  91.9148 268.1989 15.08834864211129
STARLINK-4060           
1 53267U 22086AB  26135.28825886  .00000169  00000+0  28685-4 0  9993
2 53267  53.2171 255.1502 0001292  90.8169 269.2972 15.08834938211124
STARLINK-4109           
1 53268U 22086AC  26134.62953843 -.00000518  00000+0 -14442-4 0  9992
2 53268  53.2177 258.1076 0000997  84.4653 275.6452 15.08836046211023
STARLINK-4122           
1 53272U 22086AG  26135.28549641  .00000646  00000+0  58656-4 0  9992
2 53272  53.2179 245.1594 0001213  91.7960 268.3171 15.08836404211255
STARLINK-4051           
1 53273U 22086AH  26135.26709896 -.00000095  00000+0  12119-4 0  9994
2 53273  53.2164 245.2427 0001157  87.9118 272.2006 15.08834395211242
STARLINK-4050           
1 53274U 22086AJ  26135.27814611 -.00004127  00000+0 -24131-3 0  9995
2 53274  53.2164 245.1905 0001787 104.4146 255.7044 15.08840425211258
STARLINK-4179           
1 53275U 22086AK  26135.26341931  .00000056  00000+0  21628-4 0  9999
2 53275  53.2170 245.2589 0001044  87.4795 272.6317 15.08834107211241
STARLINK-4174           
1 53276U 22086AL  26135.27077950  .00000213  00000+0  31495-4 0  9996
2 53276  53.2181 245.2266 0001157  85.9091 274.2034 15.08834801211248
STARLINK-4178           
1 53277U 22086AM  26135.32230164 -.00000740  00000+0 -28392-4 0  9990
2 53277  53.2165 245.0235 0001146  87.0691 273.0432 15.08837137211257
STARLINK-4180           
1 53278U 22086AN  26135.32597640 -.00001403  00000+0 -70076-4 0  9999
2 53278  53.2166 244.9765 0000910  82.4034 277.7061 15.08832293211250
STARLINK-4169           
1 53280U 22086AQ  26135.31351741 -.00000047  00000+0  15150-4 0  9995
2 53280  53.2165 199.7083 0001070  84.8295 275.2819 15.08840526211897
STARLINK-4164           
1 53282U 22086AS  26135.31861821 -.00000283  00000+0  29573-6 0  9990
2 53282  53.2165 245.0118 0001166  84.3644 275.7481 15.08840088211255
STARLINK-4175           
1 53283U 22086AT  26134.57893674 -.00000005  00000+0  17779-4 0  9994
2 53283  53.2152 248.3327 0001064  79.5209 280.5903 15.08840462211147
